{
  "type": "FeatureCollection",
  "features": [
    {
      "type": "Feature",
      "properties": {
        "norad_id": 30680,
        "name": "FENGYUN 1C DEB",
        "group": "fengyun-1c-debris",
        "lat": 3.4149886501330333,
        "lon": -149.0422519604551,
        "alt_km": 804.0763811665865,
        "timestamp": "2025-12-13T18:50:04.708990+00:00",
        "meta_object_name": "FENGYUN 1C DEB",
        "meta_object_id": "1999-025AQN",
        "meta_epoch": "2025-12-12T18:57:23.611968",
        "meta_mean_motion": 13.56107903,
        "meta_eccentricity": 0.03400977,
        "meta_inclination": 99.63,
        "meta_ra_of_asc_node": 29.4035,
        "meta_arg_of_pericenter": 167.6538,
        "meta_mean_anomaly": 193.3201,
        "meta_ephemeris_type": 0,
        "meta_classification_type": "U",
        "meta_norad_cat_id": 30680,
        "meta_element_set_no": 999,
        "meta_rev_at_epoch": 92254,
        "meta_bstar": 0.0060175094,
        "meta_mean_motion_dot": 6.085e-05,
        "meta_mean_motion_ddot": 0,
        "tle_line1": "1 30680U 99025AQN 25346.78985662  .00006085  00000+0  60175-2 0  9992",
        "tle_line2": "2 30680  99.6300  29.4035 0340097 167.6538 193.3201 13.56107903922544"
      },
      "geometry": {
        "type": "Point",
        "coordinates": [
          -149.0422519604551,
          3.4149886501330333
        ]
      }
    },
    {
      "type": "Feature",
      "properties": {
        "norad_id": 30683,
        "name": "FENGYUN 1C DEB",
        "group": "fengyun-1c-debris",
        "lat": -64.95272484779527,
        "lon": 20.135594871459205,
        "alt_km": 866.5942037753985,
        "timestamp": "2025-12-13T18:50:04.709000+00:00",
        "meta_object_name": "FENGYUN 1C DEB",
        "meta_object_id": "1999-025AQR",
        "meta_epoch": "2025-12-13T00:24:03.909024",
        "meta_mean_motion": 14.00388306,
        "meta_eccentricity": 0.01382918,
        "meta_inclination": 99.4279,
        "meta_ra_of_asc_node": 358.5166,
        "meta_arg_of_pericenter": 223.8636,
        "meta_mean_anomaly": 157.9668,
        "meta_ephemeris_type": 0,
        "meta_classification_type": "U",
        "meta_norad_cat_id": 30683,
        "meta_element_set_no": 999,
        "meta_rev_at_epoch": 95555,
        "meta_bstar": 0.0018173202,
        "meta_mean_motion_dot": 2.878e-05,
        "meta_mean_motion_ddot": 0,
        "tle_line1": "1 30683U 99025AQR 25347.01671191  .00002878  00000+0  18173-2 0  9998",
        "tle_line2": "2 30683  99.4279 358.5166 0138291 223.8636 157.9668 14.00388306955554"
      },
      "geometry": {
        "type": "Point",
        "coordinates": [
          20.135594871459205,
          -64.95272484779527
        ]
      }
    },
    {
      "type": "Feature",
      "properties": {
        "norad_id": 30684,
        "name": "FENGYUN 1C DEB",
        "group": "fengyun-1c-debris",
        "lat": -17.425331120713263,
        "lon": 32.18205073207029,
        "alt_km": 969.6142046230198,
        "timestamp": "2025-12-13T18:50:04.709011+00:00",
        "meta_object_name": "FENGYUN 1C DEB",
        "meta_object_id": "1999-025AQS",
        "meta_epoch": "2025-12-13T01:21:07.582464",
        "meta_mean_motion": 13.66805616,
        "meta_eccentricity": 0.02348904,
        "meta_inclination": 99.5315,
        "meta_ra_of_asc_node": 28.4414,
        "meta_arg_of_pericenter": 268.4509,
        "meta_mean_anomaly": 88.972,
        "meta_ephemeris_type": 0,
        "meta_classification_type": "U",
        "meta_norad_cat_id": 30684,
        "meta_element_set_no": 999,
        "meta_rev_at_epoch": 93633,
        "meta_bstar": 0.0013182087,
        "meta_mean_motion_dot": 1.283e-05,
        "meta_mean_motion_ddot": 0,
        "tle_line1": "1 30684U 99025AQS 25347.05633776  .00001283  00000+0  13182-2 0  9994",
        "tle_line2": "2 30684  99.5315  28.4414 0234890 268.4509  88.9720 13.66805616936338"
      },
      "geometry": {
        "type": "Point",
        "coordinates": [
          32.18205073207029,
          -17.425331120713263
        ]
      }
    },
    {
      "type": "Feature",
      "properties": {
        "norad_id": 30686,
        "name": "FENGYUN 1C DEB",
        "group": "fengyun-1c-debris",
        "lat": -37.28519148401977,
        "lon": -171.24209547896646,
        "alt_km": 746.6067811275079,
        "timestamp": "2025-12-13T18:50:04.709021+00:00",
        "meta_object_name": "FENGYUN 1C DEB",
        "meta_object_id": "1999-025AQU",
        "meta_epoch": "2025-12-13T06:13:27.933312",
        "meta_mean_motion": 14.73891311,
        "meta_eccentricity": 0.01441268,
        "meta_inclination": 99.0333,
        "meta_ra_of_asc_node": 181.2158,
        "meta_arg_of_pericenter": 118.9884,
        "meta_mean_anomaly": 297.6925,
        "meta_ephemeris_type": 0,
        "meta_classification_type": "U",
        "meta_norad_cat_id": 30686,
        "meta_element_set_no": 999,
        "meta_rev_at_epoch": 99609,
        "meta_bstar": 0.0011514277,
        "meta_mean_motion_dot": 8.859e-05,
        "meta_mean_motion_ddot": 0,
        "tle_line1": "1 30686U 99025AQU 25347.25935108  .00008859  00000+0  11514-2 0  9995",
        "tle_line2": "2 30686  99.0333 181.2158 0144126 118.9884 297.6925 14.73891311996096"
      },
      "geometry": {
        "type": "Point",
        "coordinates": [
          -171.24209547896646,
          -37.28519148401977
        ]
      }
    },
    {
      "type": "Feature",
      "properties": {
        "norad_id": 30688,
        "name": "FENGYUN 1C DEB",
        "group": "fengyun-1c-debris",
        "lat": 55.13208478540526,
        "lon": -106.13890836848402,
        "alt_km": 788.1750260594317,
        "timestamp": "2025-12-13T18:50:04.709032+00:00",
        "meta_object_name": "FENGYUN 1C DEB",
        "meta_object_id": "1999-025AQW",
        "meta_epoch": "2025-12-13T05:11:15.258048",
        "meta_mean_motion": 14.32705034,
        "meta_eccentricity": 0.00152062,
        "meta_inclination": 98.7014,
        "meta_ra_of_asc_node": 60.5936,
        "meta_arg_of_pericenter": 314.0692,
        "meta_mean_anomaly": 118.5731,
        "meta_ephemeris_type": 0,
        "meta_classification_type": "U",
        "meta_norad_cat_id": 30688,
        "meta_element_set_no": 999,
        "meta_rev_at_epoch": 97267,
        "meta_bstar": 0.002419015,
        "meta_mean_motion_dot": 6.551e-05,
        "meta_mean_motion_ddot": 0,
        "tle_line1": "1 30688U 99025AQW 25347.21614882  .00006551  00000+0  24190-2 0  9997",
        "tle_line2": "2 30688  98.7014  60.5936 0015206 314.0692 118.5731 14.32705034972670"
      },
      "geometry": {
        "type": "Point",
        "coordinates": [
          -106.13890836848402,
          55.13208478540526
        ]
      }
    },
    {
      "type": "Feature",
      "properties": {
        "norad_id": 30689,
        "name": "FENGYUN 1C DEB",
        "group": "fengyun-1c-debris",
        "lat": 38.55602844897611,
        "lon": -33.02774588197476,
        "alt_km": 810.7344307938856,
        "timestamp": "2025-12-13T18:50:04.709042+00:00",
        "meta_object_name": "FENGYUN 1C DEB",
        "meta_object_id": "1999-025AQX",
        "meta_epoch": "2025-12-12T22:29:43.576224",
        "meta_mean_motion": 14.11767378,
        "meta_eccentricity": 0.0111731,
        "meta_inclination": 98.7082,
        "meta_ra_of_asc_node": 333.1661,
        "meta_arg_of_pericenter": 102.7612,
        "meta_mean_anomaly": 312.8054,
        "meta_ephemeris_type": 0,
        "meta_classification_type": "U",
        "meta_norad_cat_id": 30689,
        "meta_element_set_no": 999,
        "meta_rev_at_epoch": 96893,
        "meta_bstar": 0.00050572022,
        "meta_mean_motion_dot": 9.36e-06,
        "meta_mean_motion_ddot": 0,
        "tle_line1": "1 30689U 99025AQX 25346.93730991  .00000936  00000+0  50572-3 0  9991",
        "tle_line2": "2 30689  98.7082 333.1661 0111731 102.7612 312.8054 14.11767378968931"
      },
      "geometry": {
        "type": "Point",
        "coordinates": [
          -33.02774588197476,
          38.55602844897611
        ]
      }
    },
    {
      "type": "Feature",
      "properties": {
        "norad_id": 30690,
        "name": "FENGYUN 1C DEB",
        "group": "fengyun-1c-debris",
        "lat": 50.45631334024481,
        "lon": -93.08139347590269,
        "alt_km": 810.0318349296531,
        "timestamp": "2025-12-13T18:50:04.709052+00:00",
        "meta_object_name": "FENGYUN 1C DEB",
        "meta_object_id": "1999-025AQY",
        "meta_epoch": "2025-12-13T07:19:55.859232",
        "meta_mean_motion": 14.02329747,
        "meta_eccentricity": 0.01050293,
        "meta_inclination": 99.1585,
        "meta_ra_of_asc_node": 277.7049,
        "meta_arg_of_pericenter": 74.4579,
        "meta_mean_anomaly": 79.198,
        "meta_ephemeris_type": 0,
        "meta_classification_type": "U",
        "meta_norad_cat_id": 30690,
        "meta_element_set_no": 999,
        "meta_rev_at_epoch": 95715,
        "meta_bstar": 0.0020034886,
        "meta_mean_motion_dot": 3.182e-05,
        "meta_mean_motion_ddot": 0,
        "tle_line1": "1 30690U 99025AQY 25347.30550763  .00003182  00000+0  20035-2 0  9998",
        "tle_line2": "2 30690  99.1585 277.7049 0105029  74.4579  79.1980 14.02329747957156"
      },
      "geometry": {
        "type": "Point",
        "coordinates": [
          -93.08139347590269,
          50.45631334024481
        ]
      }
    }
  ]
}